{
  "norad_id": 64216,
  "name": "STARLINK-34296",
  "history": [
    {
      "epoch": "2026-03-28T20:48:16.032672Z",
      "apogee_km": 475.64214015293146,
      "perigee_km": 474.711186024937,
      "latitude_deg": 2.4436130608309593e-05,
      "longitude_deg": 172.05027094593757,
      "height_km": 476.1459366762029,
      "semi_major_axis_km": 6853.313663088934,
      "eccentricity": 6.792e-05,
      "inclination_deg": 53.1611,
      "raan_deg": 310.3982,
      "arg_perigee_deg": 98.6845,
      "mean_anomaly_deg": 261.4233,
      "mean_motion_rev_day": 15.30212863
    },
    {
      "epoch": "2026-03-28T23:56:22.636608Z",
      "apogee_km": 476.0010817461525,
      "perigee_km": 474.42481125845643,
      "latitude_deg": -5.062125894907662e-06,
      "longitude_deg": 124.28707575372299,
      "height_km": 475.7912097512542,
      "semi_major_axis_km": 6853.349946502304,
      "eccentricity": 0.000115,
      "inclination_deg": 53.1609,
      "raan_deg": 309.7913,
      "arg_perigee_deg": 66.0279,
      "mean_anomaly_deg": 294.0842,
      "mean_motion_rev_day": 15.30200711
    },
    {
      "epoch": "2026-03-29T23:27:10.579392Z",
      "apogee_km": 475.91464512821767,
      "perigee_km": 474.43528920698554,
      "latitude_deg": -5.100664422100555e-05,
      "longitude_deg": 126.07042278416635,
      "height_km": 475.9920896791948,
      "semi_major_axis_km": 6853.311967167601,
      "eccentricity": 0.00010793,
      "inclination_deg": 53.1598,
      "raan_deg": 305.2401,
      "arg_perigee_deg": 83.6965,
      "mean_anomaly_deg": 276.4158,
      "mean_motion_rev_day": 15.30213431
    },
    {
      "epoch": "2026-03-30T13:33:39.575232Z",
      "apogee_km": 476.4176510661273,
      "perigee_km": 473.974986004735,
      "latitude_deg": 9.211137608659468e-06,
      "longitude_deg": -88.86134489208628,
      "height_km": 476.11787858050667,
      "semi_major_axis_km": 6853.33331853543,
      "eccentricity": 0.00017821,
      "inclination_deg": 53.1587,
      "raan_deg": 302.5085,
      "arg_perigee_deg": 91.1421,
      "mean_anomaly_deg": 268.9784,
      "mean_motion_rev_day": 15.3020628
    },
    {
      "epoch": "2026-03-30T19:49:52.229280Z",
      "apogee_km": 475.8750496127641,
      "perigee_km": 474.5043842693767,
      "latitude_deg": 3.9592150703659834e-05,
      "longitude_deg": 175.6136456338222,
      "height_km": 476.1699699827992,
      "semi_major_axis_km": 6853.32671694107,
      "eccentricity": 0.0001,
      "inclination_deg": 53.1594,
      "raan_deg": 301.2937,
      "arg_perigee_deg": 96.8611,
      "mean_anomaly_deg": 263.2504,
      "mean_motion_rev_day": 15.30208491
    },
    {
      "epoch": "2026-03-31T13:04:27.445440Z",
      "apogee_km": 476.2141762346464,
      "perigee_km": 474.1381706081529,
      "latitude_deg": 1.5459762870568408e-05,
      "longitude_deg": -87.07675497486217,
      "height_km": 476.15047763621743,
      "semi_major_axis_km": 6853.313173421399,
      "eccentricity": 0.00015146,
      "inclination_deg": 53.1582,
      "raan_deg": 297.9582,
      "arg_perigee_deg": 94.2406,
      "mean_anomaly_deg": 265.8768,
      "mean_motion_rev_day": 15.30213027
    },
    {
      "epoch": "2026-04-01T20:25:31.469952Z",
      "apogee_km": 477.0990467675365,
      "perigee_km": 473.202267405718,
      "latitude_deg": -1.6916298730142066e-05,
      "longitude_deg": 155.30100912797687,
      "height_km": 476.53471050022256,
      "semi_major_axis_km": 6853.287657086627,
      "eccentricity": 0.0002843,
      "inclination_deg": 53.1572,
      "raan_deg": 291.8903,
      "arg_perigee_deg": 104.5189,
      "mean_anomaly_deg": 255.6127,
      "mean_motion_rev_day": 15.30221573
    },
    {
      "epoch": "2026-04-02T19:56:19.399776Z",
      "apogee_km": 477.59667738402095,
      "perigee_km": 473.00487407428227,
      "latitude_deg": -3.412769095911665e-05,
      "longitude_deg": 157.0809319770178,
      "height_km": 476.60572823055475,
      "semi_major_axis_km": 6853.437775729151,
      "eccentricity": 0.000335,
      "inclination_deg": 53.153,
      "raan_deg": 287.3356,
      "arg_perigee_deg": 100.3048,
      "mean_anomaly_deg": 259.833,
      "mean_motion_rev_day": 15.30171296
    },
    {
      "epoch": "2026-04-02T19:56:19.400640Z",
      "apogee_km": 477.59647178088744,
      "perigee_km": 473.00507967741487,
      "latitude_deg": -3.140370526947498e-05,
      "longitude_deg": 157.08093039716036,
      "height_km": 476.6056914517046,
      "semi_major_axis_km": 6853.437775729151,
      "eccentricity": 0.00033497,
      "inclination_deg": 53.153,
      "raan_deg": 287.3356,
      "arg_perigee_deg": 100.3048,
      "mean_anomaly_deg": 259.833,
      "mean_motion_rev_day": 15.30171296
    },
    {
      "epoch": "2026-04-03T17:53:05.831232Z",
      "apogee_km": 475.74554339291353,
      "perigee_km": 474.83677881875064,
      "latitude_deg": -1.7933103766403906e-05,
      "longitude_deg": -177.25931996934904,
      "height_km": 476.23828677817966,
      "semi_major_axis_km": 6853.428161105831,
      "eccentricity": 6.63e-05,
      "inclination_deg": 53.1571,
      "raan_deg": 283.0901,
      "arg_perigee_deg": 96.1348,
      "mean_anomaly_deg": 263.9728,
      "mean_motion_rev_day": 15.30174516
    },
    {
      "epoch": "2026-04-04T18:57:55.666368Z",
      "apogee_km": 475.47702791652046,
      "perigee_km": 474.84378323624424,
      "latitude_deg": 4.123799680590329e-05,
      "longitude_deg": 160.64845701244417,
      "height_km": 476.0849551652065,
      "semi_major_axis_km": 6853.297405576382,
      "eccentricity": 4.62e-05,
      "inclination_deg": 53.1588,
      "raan_deg": 278.2355,
      "arg_perigee_deg": 94.6263,
      "mean_anomaly_deg": 265.4791,
      "mean_motion_rev_day": 15.30218308
    },
    {
      "epoch": "2026-04-05T12:12:30.500640Z",
      "apogee_km": 475.67358205841174,
      "perigee_km": 474.6317449637654,
      "latitude_deg": -1.7430138501990114e-05,
      "longitude_deg": -102.0409758481098,
      "height_km": 476.33170233999016,
      "semi_major_axis_km": 6853.289663511088,
      "eccentricity": 7.601e-05,
      "inclination_deg": 53.1592,
      "raan_deg": 274.8994,
      "arg_perigee_deg": 122.5417,
      "mean_anomaly_deg": 237.5657,
      "mean_motion_rev_day": 15.30220901
    },
    {
      "epoch": "2026-04-05T18:28:43.220352Z",
      "apogee_km": 475.5817629525509,
      "perigee_km": 474.8004835465008,
      "latitude_deg": 7.273436187736211e-05,
      "longitude_deg": 162.43558410129214,
      "height_km": 476.1565663283581,
      "semi_major_axis_km": 6853.328123249526,
      "eccentricity": 5.7e-05,
      "inclination_deg": 53.1594,
      "raan_deg": 273.6864,
      "arg_perigee_deg": 99.802,
      "mean_anomaly_deg": 260.3046,
      "mean_motion_rev_day": 15.3020802
    },
    {
      "epoch": "2026-04-05T23:10:52.616064Z",
      "apogee_km": 475.54668481029057,
      "perigee_km": 474.80035929443875,
      "latitude_deg": 8.038837534649953e-05,
      "longitude_deg": 90.79241132723855,
      "height_km": 476.0946889665957,
      "semi_major_axis_km": 6853.310522052365,
      "eccentricity": 5.445e-05,
      "inclination_deg": 53.1589,
      "raan_deg": 272.7755,
      "arg_perigee_deg": 93.4193,
      "mean_anomaly_deg": 266.6871,
      "mean_motion_rev_day": 15.30213915
    },
    {
      "epoch": "2026-04-07T11:14:06.231552Z",
      "apogee_km": 475.57781292038544,
      "perigee_km": 474.75706118100334,
      "latitude_deg": 3.549812045853534e-05,
      "longitude_deg": -98.47243345158805,
      "height_km": 475.7208310971426,
      "semi_major_axis_km": 6853.304437050694,
      "eccentricity": 5.988e-05,
      "inclination_deg": 53.1598,
      "raan_deg": 265.7981,
      "arg_perigee_deg": 32.5525,
      "mean_anomaly_deg": 327.5513,
      "mean_motion_rev_day": 15.30215953
    },
    {
      "epoch": "2026-04-07T19:04:22.236384Z",
      "apogee_km": 475.6783044837257,
      "perigee_km": 474.77640173485725,
      "latitude_deg": -4.9044633513556765e-05,
      "longitude_deg": 142.12222965246102,
      "height_km": 475.8529965865144,
      "semi_major_axis_km": 6853.364353109291,
      "eccentricity": 6.58e-05,
      "inclination_deg": 53.1603,
      "raan_deg": 264.2814,
      "arg_perigee_deg": 52.6699,
      "mean_anomaly_deg": 307.4361,
      "mean_motion_rev_day": 15.30195886
    },
    {
      "epoch": "2026-04-08T10:44:54.244320Z",
      "apogee_km": 475.84773039497577,
      "perigee_km": 474.5305211136056,
      "latitude_deg": 6.374381643597689e-06,
      "longitude_deg": -96.68886972522918,
      "height_km": 475.77904776849095,
      "semi_major_axis_km": 6853.326125754291,
      "eccentricity": 9.61e-05,
      "inclination_deg": 53.1606,
      "raan_deg": 261.2474,
      "arg_perigee_deg": 62.0399,
      "mean_anomaly_deg": 298.0699,
      "mean_motion_rev_day": 15.30208689
    },
    {
      "epoch": "2026-04-09T16:31:54.885216Z",
      "apogee_km": 475.3951009232169,
      "perigee_km": 474.9715657266179,
      "latitude_deg": 2.917697122938939e-05,
      "longitude_deg": 169.57120780569926,
      "height_km": 475.9796632240851,
      "semi_major_axis_km": 6853.320333324917,
      "eccentricity": 3.09e-05,
      "inclination_deg": 53.1615,
      "raan_deg": 255.4833,
      "arg_perigee_deg": 60.8315,
      "mean_anomaly_deg": 299.2717,
      "mean_motion_rev_day": 15.30210629
    },
    {
      "epoch": "2026-04-10T09:46:30.098784Z",
      "apogee_km": 476.04380418799883,
      "perigee_km": 474.3373256243367,
      "latitude_deg": -7.057287446407454e-05,
      "longitude_deg": -93.12074115567071,
      "height_km": 475.902182678473,
      "semi_major_axis_km": 6853.327564906167,
      "eccentricity": 0.0001245,
      "inclination_deg": 53.1585,
      "raan_deg": 252.1463,
      "arg_perigee_deg": 77.3821,
      "mean_anomaly_deg": 282.7318,
      "mean_motion_rev_day": 15.30208207
    }
  ]
}